[Satellite]
VERSION=1.1
NAME=NOAA 3 [-]
NICKNAME=NOAA 3 [-]
TLE1=1 06920U 73086A   18020.92842884 -.00000047  00000-0 -19173-4 0  9995
TLE2=2 06920 101.9743 351.6931 0006789  30.0043 347.3804 12.40351059  1361
